#cP2019  7 10  0  0  0.00000000      96 TRACK IGb14 FIT GRGS
## 2061 259200.00000000   900.00000000 58674 0.0000000000000
+   79   E01E02E03E04E05E07E08E09E11E12E13E14E15E18E19E21E24
+        E25E26E27E30E31E33E36R01R02R03R04R05R07R08R09R10R11
+        R12R13R14R15R16R17R18R19R20R21R22R23R24R26G01G02G03
+        G05G06G07G08G09G10G11G12G13G14G15G16G17G19G20G21G22
+        G23G24G25G26G27G28G29G30G31G32G18  0  0  0  0  0  0
++         5  5  5  5  5  4  5  5  5  5  5  5  5  5  5  5  5
++         5  5  5  5  5  6  5  6  6  5  6  6  5  6  6  6  5
++         6  6  6  6  6  6  6  6  6  6  6  6  7  6  5  5  4
++         5  5  4  5  5  5  5  5  5  4  5  5  5  5  5  5  4
++         5  5  5  5  4  5  5  5  5  4  5  0  0  0  0  0  0
%c M  cc GPS ccc cccc cccc cccc cccc ccccc ccccc ccccc ccccc
%c cc cc ccc ccc cccc cccc cccc cccc ccccc ccccc ccccc ccccc
%f  0.0000000  0.000000000  0.00000000000  0.000000000000000
%f  0.0000000  0.000000000  0.00000000000  0.000000000000000
%i    0    0    0    0      0      0      0      0         0
%i    0    0    0    0      0      0      0      0         0
/* CNES/CLS/GRGS - TOULOUSE,FRANCE - Contact : igs-ac@cls.fr
/* PCV: OL/AL:FES2012  NONE     NN ORB:CoN CLK:CoN          
/* CCCCCCCCCCCCCCCCCCCCCCCCCCCCCCCCCCCCCCCCCCCCCCCCCCCCCCCCC
/* CCCCCCCCCCCCCCCCCCCCCCCCCCCCCCCCCCCCCCCCCCCCCCCCCCCCCCCCC
*  2019  7 10  6 45  0.00000000
PE01  12622.374341  22600.521005  14347.134893   -643.915868
PE02 -12647.621311 -22562.377110 -14391.931672     68.615295
PE03 -12696.197944 -11769.873714  24016.464230   -186.600088
PE04  24710.190837  -5247.887556 -15419.424945   -320.218100
PE05   6849.300558 -22004.655133  18587.877411   -467.737468
PE07 -22303.206651  19313.110818  -2299.025103   -223.525677
PE08 -24635.682860   5584.975167  15427.016366   6326.385797
PE09  22138.373174 -19521.268771   2377.887806   6383.384639
PE11  16993.081882  -9263.862102 -22400.139047   5657.549202
PE12  27955.767361   5301.779101  -8125.111970   6305.520460
PE13 -17065.051818   9174.911837  22380.046353    389.765098
PE14  23543.037879 -14396.649843  -9519.457361   -637.147265
PE15 -27931.263995  -4939.089392   8472.157276    903.763069
PE18 -27610.718491   3846.540015  -3590.728336   -732.912964
PE19  10864.186568  13094.220319 -24210.263880     -5.246981
PE21   1227.338605  29263.704549  -4240.506008   -543.382413
PE24  10917.580070 -18826.085147  20049.767281   5984.925594
PE25  -1181.295440 -29267.760412   4310.873307   1747.249530
PE26   3712.111659  18149.610255  23085.747567   4357.628898
PE27 -10910.499742  18636.838027 -20236.982324    432.136631
PE30 -16643.914922  -2755.400836 -24328.958540   4722.876725
PE31  16619.960434   2880.976049  24329.207694   -466.341137
PE33  22460.886370  16200.907703  10441.952670   -469.835836
PE36  -3847.096166 -17959.661741 -23213.483555    689.372172
PR01 -11527.345307  21038.162890  -8638.938581     46.509165
PR02   3777.949101  11884.986217 -22216.209866    377.609717
PR03  15372.002410  -3603.116650 -19974.950402     -1.953525
PR04  17833.005094 -17332.614930  -5622.401999    313.246709
PR05  10326.332431 -20563.570135  11002.925252     31.626208
PR07 -15653.344064   4077.714547  19775.630311    -23.175067
PR08 -18034.616954  16861.032263   6485.469315     16.823288
PR09 -11949.633888 -21074.386593  -8085.979646     79.351497
PR10 -13079.914538  -9260.010202 -19893.621243     54.073352
PR11  -7528.899951  10309.454889 -22058.465804    -72.198642
PR12   2328.804138  22425.911132 -11916.560828     42.288623
PR13  11443.878970  21967.813276   6055.262618    -25.756968
PR14  13332.820296   8784.587119  19899.405490     40.797229
PR15   7809.152589  -9437.386764  22397.293904    103.010778
PR16  -2646.654026 -22401.320897  11781.545160      7.629466
PR17  25000.413344   4998.309376   1298.032238    242.447672
PR18  20407.868730  -3235.367088 -14910.448949     -0.272524
PR19   5195.735750  -9520.346097 -23093.112889    -41.183243
PR20 -15125.638889 -10985.306308 -17377.571255   -383.848769
PR21 -25049.703646  -4703.184356   -609.152236    -58.912825
PR22 -18608.075793   4376.909097  16955.086063    -27.753190
PR23   1018.810338  10759.220725  23091.909235    239.716468
PR24  16885.159305  10390.917783  16009.984933   -182.453522
PR26 -12565.307211 -11062.251012 -19228.040760    -17.356888
PG01 -22013.297747 -13397.807440   6901.129746    -63.231109
PG02  11251.023293  20559.268510  13243.255441   -256.741335
PG03 -13879.464528  -6885.075939  21538.390515    181.905388
PG05   3757.726829  23872.057874 -10907.352662      0.119091
PG06  -2621.471273  16392.322853  20765.307264    153.943258
PG07 -19716.214964   -966.256919 -17723.826097    -61.341625
PG08 -16966.386485  -7786.655225 -18946.276609   -150.634110
PG09 -25322.748678   7907.638175   1351.668799    374.112774
PG10  11358.232992 -21710.672448  -9928.202313    -11.111754
PG11 -24508.313913  -9488.516078  -3183.065795   -564.827286
PG12  11852.110614  10330.925728  21218.922698    225.303208
PG13   7021.483585  13815.303363 -21684.421984    -55.297471
PG14   8833.555212 -16193.518946  19370.368821    -72.227879
PG15  18432.098197   6796.057340 -18311.760283   -301.849650
PG16   -947.299995 -23818.952946 -11427.472262    -54.966903
PG17 -16804.847247  14770.499206  14653.008546     86.090510
PG19 -11295.469838  15163.926871  18370.946777   -296.058014
PG20  14052.178982 -14407.938760 -17356.573775    525.869793
PG21  16297.038139  -5019.806139 -19530.983140   -157.493699
PG22 -12332.418297 -14534.285508  18760.100180   -729.014520
PG23 -23198.937298  -2060.785767  13466.960026   -177.939273
PG24  22290.295491  14281.597919   3624.229731    -68.638939
PG25  15501.797699  -4670.229907  20792.218210   -772.284986
PG26   4077.666251 -26138.414226   -655.076717    247.587496
PG27  -4190.826409 -14285.696016 -22102.087168   -180.753876
PG28 -12735.992344  21199.183748  -9211.942274    766.631789
PG29  25882.251166  -3596.133533   4767.066047    155.255473
PG30 -12523.399738   9574.559981 -21361.368819   -140.191900
PG31   1838.576320 -17347.889741  19892.889362     25.331831
PG32  15781.792150 -15990.030227  14134.325146     -8.987997
PG18 -19656.363661 -17857.629586  -2428.814090     68.679679
EOF
